[{"OBJECT_NAME":"OBJECT E","OBJECT_ID":"2024-105E","EPOCH":"2026-03-10T00:03:44.143200","MEAN_MOTION":15.19028023,"ECCENTRICITY":0.00116899,"INCLINATION":97.5872,"RA_OF_ASC_NODE":85.441,"ARG_OF_PERICENTER":201.8034,"MEAN_ANOMALY":158.2704,"EPHEMERIS_TYPE":0,"CLASSIFICATION_TYPE":"U","NORAD_CAT_ID":59921,"ELEMENT_SET_NO":999,"REV_AT_EPOCH":9809,"BSTAR":0.00030074401,"MEAN_MOTION_DOT":6.239e-5,"MEAN_MOTION_DDOT":0},{"OBJECT_NAME":"PTD-4 (LISA-T)","OBJECT_ID":"2024-149DB","EPOCH":"2026-03-09T16:01:41.648160","MEAN_MOTION":15.17820166,"ECCENTRICITY":0.00028752,"INCLINATION":97.6982,"RA_OF_ASC_NODE":155.5534,"ARG_OF_PERICENTER":46.4623,"MEAN_ANOMALY":313.6849,"EPHEMERIS_TYPE":0,"CLASSIFICATION_TYPE":"U","NORAD_CAT_ID":60565,"ELEMENT_SET_NO":999,"REV_AT_EPOCH":8570,"BSTAR":0.0011421385,"MEAN_MOTION_DOT":0.0002309,"MEAN_MOTION_DDOT":0}]
